[
    {
        "Altitude(m)": 570781.2831442698,
        "Argument of Periapsis(deg)": 0.013245982221427002,
        "Eccentricity": 0.0,
        "Inclination(deg)": 53.0,
        "Latitude(deg)": -50.43242856408147,
        "Longitude(deg)": 13.33488465902184,
        "Mean Anomaly(deg)": -74.36221426484482,
        "RAAN(deg)": 179.98028673705602,
        "Satellite Name": "Starlink Shell 1 808",
        "Satellite Number": 808,
        "Semi-Major Axis(m)": 6931778.249405717,
        "Time(s)": 380
    },
    {
        "Altitude(m)": 570696.364887831,
        "Argument of Periapsis(deg)": 0.013594560700938237,
        "Eccentricity": 0.0,
        "Inclination(deg)": 53.0,
        "Latitude(deg)": -50.21848554422715,
        "Longitude(deg)": 14.210707575699063,
        "Mean Anomaly(deg)": -73.73538306128818,
        "RAAN(deg)": 179.97976796697859,
        "Satellite Name": "Starlink Shell 1 808",
        "Satellite Number": 808,
        "Semi-Major Axis(m)": 6931778.249405717,
        "Time(s)": 390
    },
    {
        "Altitude(m)": 570608.4225605604,
        "Argument of Periapsis(deg)": 0.013943139180449475,
        "Eccentricity": 0.0,
        "Inclination(deg)": 53.0,
        "Latitude(deg)": -49.99736154849192,
        "Longitude(deg)": 15.078243790438513,
        "Mean Anomaly(deg)": -73.1085518577314,
        "RAAN(deg)": 179.97924919690107,
        "Satellite Name": "Starlink Shell 1 808",
        "Satellite Number": 808,
        "Semi-Major Axis(m)": 6931778.249405717,
        "Time(s)": 400
    },
    {
        "Altitude(m)": 570517.4911063028,
        "Argument of Periapsis(deg)": 0.014291717659960712,
        "Eccentricity": 0.0,
        "Inclination(deg)": 53.0,
        "Latitude(deg)": -49.769176402859806,
        "Longitude(deg)": 15.937367262710879,
        "Mean Anomaly(deg)": -72.48172065417464,
        "RAAN(deg)": 179.97873042682363,
        "Satellite Name": "Starlink Shell 1 808",
        "Satellite Number": 808,
        "Semi-Major Axis(m)": 6931778.249405717,
        "Time(s)": 410
    },
    {
        "Altitude(m)": 570423.6066453183,
        "Argument of Periapsis(deg)": 0.014640296139471948,
        "Eccentricity": 0.0,
        "Inclination(deg)": 53.0,
        "Latitude(deg)": -49.53405104272749,
        "Longitude(deg)": 16.787966444870843,
        "Mean Anomaly(deg)": -71.854889450618,
        "RAAN(deg)": 179.97821165674614,
        "Satellite Name": "Starlink Shell 1 808",
        "Satellite Number": 808,
        "Semi-Major Axis(m)": 6931778.249405717,
        "Time(s)": 420
    },
    {
        "Altitude(m)": 570326.8064585712,
        "Argument of Periapsis(deg)": 0.014988874618983185,
        "Eccentricity": 0.0,
        "Inclination(deg)": 53.0,
        "Latitude(deg)": -49.29210727608204,
        "Longitude(deg)": 17.629944408050488,
        "Mean Anomaly(deg)": -71.22805824706121,
        "RAAN(deg)": 179.97769288666865,
        "Satellite Name": "Starlink Shell 1 808",
        "Satellite Number": 808,
        "Semi-Major Axis(m)": 6931778.249405717,
        "Time(s)": 430
    },
    {
        "Altitude(m)": 570227.1289714671,
        "Argument of Periapsis(deg)": 0.015337453098494424,
        "Eccentricity": 0.0,
        "Inclination(deg)": 53.0,
        "Latitude(deg)": -49.04346755616891,
        "Longitude(deg)": 18.463218930892022,
        "Mean Anomaly(deg)": -70.60122704350457,
        "RAAN(deg)": 179.9771741165912,
        "Satellite Name": "Starlink Shell 1 808",
        "Satellite Number": 808,
        "Semi-Major Axis(m)": 6931778.249405717,
        "Time(s)": 440
    },
    {
        "Altitude(m)": 570124.6137371582,
        "Argument of Periapsis(deg)": 0.01568603157800566,
        "Eccentricity": 0.0,
        "Inclination(deg)": 53.0,
        "Latitude(deg)": -48.788254764147986,
        "Longitude(deg)": 19.28772104323667,
        "Mean Anomaly(deg)": -69.97439583994782,
        "RAAN(deg)": 179.97665534651375,
        "Satellite Name": "Starlink Shell 1 808",
        "Satellite Number": 808,
        "Semi-Major Axis(m)": 6931778.249405717,
        "Time(s)": 450
    },
    {
        "Altitude(m)": 570019.3014192824,
        "Argument of Periapsis(deg)": 0.0160346100575169,
        "Eccentricity": 0.0,
        "Inclination(deg)": 53.0,
        "Latitude(deg)": -48.5265920021252,
        "Longitude(deg)": 20.1033950553664,
        "Mean Anomaly(deg)": -69.34756463639114,
        "RAAN(deg)": 179.97613657643623,
        "Satellite Name": "Starlink Shell 1 808",
        "Satellite Number": 808,
        "Semi-Major Axis(m)": 6931778.249405717,
        "Time(s)": 460
    },
    {
        "Altitude(m)": 569911.2337742483,
        "Argument of Periapsis(deg)": 0.016383188537028134,
        "Eccentricity": 0.0,
        "Inclination(deg)": 53.0,
        "Latitude(deg)": -48.25860239685329,
        "Longitude(deg)": 20.910198564613417,
        "Mean Anomaly(deg)": -68.7207334328344,
        "RAAN(deg)": 179.97561780635877,
        "Satellite Name": "Starlink Shell 1 808",
        "Satellite Number": 808,
        "Semi-Major Axis(m)": 6931778.249405717,
        "Time(s)": 470
    },
    {
        "Altitude(m)": 569800.4536330068,
        "Argument of Periapsis(deg)": 0.01673176701653937,
        "Eccentricity": 0.0,
        "Inclination(deg)": 53.0,
        "Latitude(deg)": -47.984408914303046,
        "Longitude(deg)": 21.70810093094042,
        "Mean Anomaly(deg)": -68.09390222927763,
        "RAAN(deg)": 179.9750990362813,
        "Satellite Name": "Starlink Shell 1 808",
        "Satellite Number": 808,
        "Semi-Major Axis(m)": 6931778.249405717,
        "Time(s)": 480
    },
    {
        "Altitude(m)": 569687.0048823748,
        "Argument of Periapsis(deg)": 0.017080345496050607,
        "Eccentricity": 0.0,
        "Inclination(deg)": 53.0,
        "Latitude(deg)": -47.70413418521023,
        "Longitude(deg)": 22.497083251485407,
        "Mean Anomaly(deg)": -67.46707102572097,
        "RAAN(deg)": 179.97458026620382,
        "Satellite Name": "Starlink Shell 1 808",
        "Satellite Number": 808,
        "Semi-Major Axis(m)": 6931778.249405717,
        "Time(s)": 490
    },
    {
        "Altitude(m)": 569570.9324458564,
        "Argument of Periapsis(deg)": 0.017428923975561842,
        "Eccentricity": 0.0,
        "Inclination(deg)": 53.0,
        "Latitude(deg)": -47.417900341631295,
        "Longitude(deg)": 23.277138325188282,
        "Mean Anomaly(deg)": -66.84023982216421,
        "RAAN(deg)": 179.97406149612635,
        "Satellite Name": "Starlink Shell 1 808",
        "Satellite Number": 808,
        "Semi-Major Axis(m)": 6931778.249405717,
        "Time(s)": 500
    },
    {
        "Altitude(m)": 569452.2822640241,
        "Argument of Periapsis(deg)": 0.01777750245507308,
        "Eccentricity": 0.0,
        "Inclination(deg)": 53.0,
        "Latitude(deg)": -47.12582886446952,
        "Longitude(deg)": 24.048269098346406,
        "Mean Anomaly(deg)": -66.21340861860756,
        "RAAN(deg)": 179.9735427260489,
        "Satellite Name": "Starlink Shell 1 808",
        "Satellite Number": 808,
        "Semi-Major Axis(m)": 6931778.249405717,
        "Time(s)": 510
    },
    {
        "Altitude(m)": 569331.1012744284,
        "Argument of Periapsis(deg)": 0.018126080934584315,
        "Eccentricity": 0.0,
        "Inclination(deg)": 53.0,
        "Latitude(deg)": -46.82804044185542,
        "Longitude(deg)": 24.810488620286527,
        "Mean Anomaly(deg)": -65.5865774150508,
        "RAAN(deg)": 179.9730239559714,
        "Satellite Name": "Starlink Shell 1 808",
        "Satellite Number": 808,
        "Semi-Major Axis(m)": 6931778.249405717,
        "Time(s)": 520
    },
    {
        "Altitude(m)": 569207.4373910665,
        "Argument of Periapsis(deg)": 0.018474659414095554,
        "Eccentricity": 0.0,
        "Inclination(deg)": 53.0,
        "Latitude(deg)": -46.52465483821965,
        "Longitude(deg)": 25.563819999428503,
        "Mean Anomaly(deg)": -64.95974621149414,
        "RAAN(deg)": 179.97250518589394,
        "Satellite Name": "Starlink Shell 1 808",
        "Satellite Number": 808,
        "Semi-Major Axis(m)": 6931778.249405717,
        "Time(s)": 530
    },
    {
        "Altitude(m)": 569081.3394834147,
        "Argument of Periapsis(deg)": 0.018823237893606792,
        "Eccentricity": 0.0,
        "Inclination(deg)": 53.0,
        "Latitude(deg)": -46.21579077383974,
        "Longitude(deg)": 26.30829484973671,
        "Mean Anomaly(deg)": -64.33291500793739,
        "RAAN(deg)": 179.97198641581647,
        "Satellite Name": "Starlink Shell 1 808",
        "Satellite Number": 808,
        "Semi-Major Axis(m)": 6931778.249405717,
        "Time(s)": 540
    },
    {
        "Altitude(m)": 568952.857355026,
        "Argument of Periapsis(deg)": 0.019171816373118027,
        "Eccentricity": 0.0,
        "Inclination(deg)": 53.0,
        "Latitude(deg)": -45.901565814593816,
        "Longitude(deg)": 27.04395325587615,
        "Mean Anomaly(deg)": -63.70608380438061,
        "RAAN(deg)": 179.97146764573898,
        "Satellite Name": "Starlink Shell 1 808",
        "Satellite Number": 808,
        "Semi-Major Axis(m)": 6931778.249405717,
        "Time(s)": 550
    },
    {
        "Altitude(m)": 568822.0417216909,
        "Argument of Periapsis(deg)": 0.019520394852629266,
        "Eccentricity": 0.0,
        "Inclination(deg)": 53.0,
        "Latitude(deg)": -45.58209627162063,
        "Longitude(deg)": 27.7708437465011,
        "Mean Anomaly(deg)": -63.07925260082397,
        "RAAN(deg)": 179.97094887566152,
        "Satellite Name": "Starlink Shell 1 808",
        "Satellite Number": 808,
        "Semi-Major Axis(m)": 6931778.249405717,
        "Time(s)": 560
    }
]